M2 PATHFINDER           
1 45727U 20037E   26068.47969609  .00004468  00000+0  32592-3 0  9994
2 45727  97.8158 258.5983 0012405 127.8041 232.4310 15.04175941310501
STARLINK-5881           
1 57054U 23088G   26068.44306429 -.00000410  00000+0 -15254-4 0  9993
2 57054  43.0018 108.7289 0001221 269.8022  90.2680 15.02534394150332
